{"type":"FeatureCollection","name":"points_rights_events_WGS84","features":[{"type":"Feature","id":"P01_E034","properties":{"Row_ID":"P01_E034","Object_ID":"P01","Name":"Centrale de Mottec","Type":"水电站","Value":1959,"CRS":"EPSG:4326","Event":"上段特许权期限起点","Event_Status":"documented","Year_Status":"year","Event_Date":null,"Year_Min":null,"Year_Max":null,"Source_Year":2025,"Record_ID":"R014","Relation_ID":"U_grant","Right_Scope":"上段授权组","Geometry_Status":"已核对官方设施点","Geometry_Scope":"工程设施定位点","Geometry_File":"points_wgs84.geojson","Official_Name":"Mottec","Geo_ID":"503200","Geo_Source":"https://api3.geo.admin.ch/rest/services/ech/MapServer/find?layer=ch.bfe.statistik-wasserkraftanlagen&searchField=name&searchText=Mottec&contains=true&geometryFormat=geojson&returnGeometry=true&sr=4326&lang=fr","Right_Source":"Savoy_Analyse de la gouvernance de la multifonctionnalité.pdf PDF 78,94","Note":"","Review":"待审理"},"geometry":{"type":"Point","coordinates":[7.619988,46.153037,0]}},{"type":"Feature","id":"P01_E024","properties":{"Row_ID":"P01_E024","Object_ID":"P01","Name":"Centrale de Mottec","Type":"水电站","Value":2022,"CRS":"EPSG:4326","Event":"现代化增值／残值补偿纳入约定","Event_Status":"documented","Year_Status":"year","Event_Date":null,"Year_Min":null,"Year_Max":null,"Source_Year":2022,"Record_ID":"R012","Relation_ID":"VAL22","Right_Scope":"","Geometry_Status":"已核对官方设施点","Geometry_Scope":"工程设施定位点","Geometry_File":"points_wgs84.geojson","Official_Name":"Mottec","Geo_ID":"503200","Geo_Source":"https://api3.geo.admin.ch/rest/services/ech/MapServer/find?layer=ch.bfe.statistik-wasserkraftanlagen&searchField=name&searchText=Mottec&contains=true&geometryFormat=geojson&returnGeometry=true&sr=4326&lang=fr","Right_Source":"Bagnoud_Val d’Anniviers-on prépare déjà l’échéance de la concession des Forces motrices de la Gougra en 2039.pdf PDF 4,5","Note":"","Review":"待审理"},"geometry":{"type":"Point","coordinates":[7.619988,46.153037,0]}},{"type":"Feature","id":"P01_E025","properties":{"Row_ID":"P01_E025","Object_ID":"P01","Name":"Centrale de Mottec","Type":"水电站","Value":2039,"CRS":"EPSG:4326","Event":"现代化补偿约定结算时点","Event_Status":"future_obligation","Year_Status":"year","Event_Date":null,"Year_Min":null,"Year_Max":null,"Source_Year":2022,"Record_ID":"R012","Relation_ID":"VAL22","Right_Scope":"","Geometry_Status":"已核对官方设施点","Geometry_Scope":"工程设施定位点","Geometry_File":"points_wgs84.geojson","Official_Name":"Mottec","Geo_ID":"503200","Geo_Source":"https://api3.geo.admin.ch/rest/services/ech/MapServer/find?layer=ch.bfe.statistik-wasserkraftanlagen&searchField=name&searchText=Mottec&contains=true&geometryFormat=geojson&returnGeometry=true&sr=4326&lang=fr","Right_Source":"Bagnoud_Val d’Anniviers-on prépare déjà l’échéance de la concession des Forces motrices de la Gougra en 2039.pdf PDF 4,5","Note":"","Review":"待审理"},"geometry":{"type":"Point","coordinates":[7.619988,46.153037,0]}},{"type":"Feature","id":"P01_E035","properties":{"Row_ID":"P01_E035","Object_ID":"P01","Name":"Centrale de Mottec","Type":"水电站","Value":2039,"CRS":"EPSG:4326","Event":"上段特许权期限届满","Event_Status":"future","Year_Status":"year","Event_Date":null,"Year_Min":null,"Year_Max":null,"Source_Year":2025,"Record_ID":"R014","Relation_ID":"U_grant","Right_Scope":"上段授权组","Geometry_Status":"已核对官方设施点","Geometry_Scope":"工程设施定位点","Geometry_File":"points_wgs84.geojson","Official_Name":"Mottec","Geo_ID":"503200","Geo_Source":"https://api3.geo.admin.ch/rest/services/ech/MapServer/find?layer=ch.bfe.statistik-wasserkraftanlagen&searchField=name&searchText=Mottec&contains=true&geometryFormat=geojson&returnGeometry=true&sr=4326&lang=fr","Right_Source":"Savoy_Analyse de la gouvernance de la multifonctionnalité.pdf PDF 78,94","Note":"","Review":"待审理"},"geometry":{"type":"Point","coordinates":[7.619988,46.153037,0]}},{"type":"Feature","id":"P02_E034","properties":{"Row_ID":"P02_E034","Object_ID":"P02","Name":"Centrale de Vissoie","Type":"水电站","Value":1959,"CRS":"EPSG:4326","Event":"上段特许权期限起点","Event_Status":"documented","Year_Status":"year","Event_Date":null,"Year_Min":null,"Year_Max":null,"Source_Year":2025,"Record_ID":"R014","Relation_ID":"U_grant","Right_Scope":"上段授权组","Geometry_Status":"已核对官方设施点","Geometry_Scope":"工程设施定位点","Geometry_File":"points_wgs84.geojson","Official_Name":"Vissoie","Geo_ID":"503300","Geo_Source":"https://api3.geo.admin.ch/rest/services/ech/MapServer/find?layer=ch.bfe.statistik-wasserkraftanlagen&searchField=name&searchText=Vissoie&contains=true&geometryFormat=geojson&returnGeometry=true&sr=4326&lang=fr","Right_Source":"Savoy_Analyse de la gouvernance de la multifonctionnalité.pdf PDF 78,94","Note":"主电站；未用同名村庄或辅助机组点。","Review":"待审理"},"geometry":{"type":"Point","coordinates":[7.585969,46.209938,0]}},{"type":"Feature","id":"P02_E024","properties":{"Row_ID":"P02_E024","Object_ID":"P02","Name":"Centrale de Vissoie","Type":"水电站","Value":2022,"CRS":"EPSG:4326","Event":"现代化增值／残值补偿纳入约定","Event_Status":"documented","Year_Status":"year","Event_Date":null,"Year_Min":null,"Year_Max":null,"Source_Year":2022,"Record_ID":"R012","Relation_ID":"VAL22","Right_Scope":"","Geometry_Status":"已核对官方设施点","Geometry_Scope":"工程设施定位点","Geometry_File":"points_wgs84.geojson","Official_Name":"Vissoie","Geo_ID":"503300","Geo_Source":"https://api3.geo.admin.ch/rest/services/ech/MapServer/find?layer=ch.bfe.statistik-wasserkraftanlagen&searchField=name&searchText=Vissoie&contains=true&geometryFormat=geojson&returnGeometry=true&sr=4326&lang=fr","Right_Source":"Bagnoud_Val d’Anniviers-on prépare déjà l’échéance de la concession des Forces motrices de la Gougra en 2039.pdf PDF 4,5","Note":"主电站；未用同名村庄或辅助机组点。","Review":"待审理"},"geometry":{"type":"Point","coordinates":[7.585969,46.209938,0]}},{"type":"Feature","id":"P02_E025","properties":{"Row_ID":"P02_E025","Object_ID":"P02","Name":"Centrale de Vissoie","Type":"水电站","Value":2039,"CRS":"EPSG:4326","Event":"现代化补偿约定结算时点","Event_Status":"future_obligation","Year_Status":"year","Event_Date":null,"Year_Min":null,"Year_Max":null,"Source_Year":2022,"Record_ID":"R012","Relation_ID":"VAL22","Right_Scope":"","Geometry_Status":"已核对官方设施点","Geometry_Scope":"工程设施定位点","Geometry_File":"points_wgs84.geojson","Official_Name":"Vissoie","Geo_ID":"503300","Geo_Source":"https://api3.geo.admin.ch/rest/services/ech/MapServer/find?layer=ch.bfe.statistik-wasserkraftanlagen&searchField=name&searchText=Vissoie&contains=true&geometryFormat=geojson&returnGeometry=true&sr=4326&lang=fr","Right_Source":"Bagnoud_Val d’Anniviers-on prépare déjà l’échéance de la concession des Forces motrices de la Gougra en 2039.pdf PDF 4,5","Note":"主电站；未用同名村庄或辅助机组点。","Review":"待审理"},"geometry":{"type":"Point","coordinates":[7.585969,46.209938,0]}},{"type":"Feature","id":"P02_E035","properties":{"Row_ID":"P02_E035","Object_ID":"P02","Name":"Centrale de Vissoie","Type":"水电站","Value":2039,"CRS":"EPSG:4326","Event":"上段特许权期限届满","Event_Status":"future","Year_Status":"year","Event_Date":null,"Year_Min":null,"Year_Max":null,"Source_Year":2025,"Record_ID":"R014","Relation_ID":"U_grant","Right_Scope":"上段授权组","Geometry_Status":"已核对官方设施点","Geometry_Scope":"工程设施定位点","Geometry_File":"points_wgs84.geojson","Official_Name":"Vissoie","Geo_ID":"503300","Geo_Source":"https://api3.geo.admin.ch/rest/services/ech/MapServer/find?layer=ch.bfe.statistik-wasserkraftanlagen&searchField=name&searchText=Vissoie&contains=true&geometryFormat=geojson&returnGeometry=true&sr=4326&lang=fr","Right_Source":"Savoy_Analyse de la gouvernance de la multifonctionnalité.pdf PDF 78,94","Note":"主电站；未用同名村庄或辅助机组点。","Review":"待审理"},"geometry":{"type":"Point","coordinates":[7.585969,46.209938,0]}},{"type":"Feature","id":"P03_E035","properties":{"Row_ID":"P03_E035","Object_ID":"P03","Name":"Centrale de Lona","Type":"水电站","Value":2039,"CRS":"EPSG:4326","Event":"上段特许权期限届满","Event_Status":"future","Year_Status":"year","Event_Date":null,"Year_Min":null,"Year_Max":null,"Source_Year":2025,"Record_ID":"R014","Relation_ID":"U_grant","Right_Scope":"上段授权组","Geometry_Status":"已核对官方设施点","Geometry_Scope":"工程设施定位点","Geometry_File":"points_wgs84.geojson","Official_Name":"Lona","Geo_ID":"503100","Geo_Source":"https://api3.geo.admin.ch/rest/services/ech/MapServer/find?layer=ch.bfe.statistik-wasserkraftanlagen&searchField=name&searchText=Lona&contains=true&geometryFormat=geojson&returnGeometry=true&sr=4326&lang=fr","Right_Source":"Savoy_Analyse de la gouvernance de la multifonctionnalité.pdf PDF 78,94","Note":"设施投运与特许权期限起点不同；不把整体历史授权回填为本设施已建。","Review":"待审理"},"geometry":{"type":"Point","coordinates":[7.545824,46.1552,0]}},{"type":"Feature","id":"P04_E013","properties":{"Row_ID":"P04_E013","Object_ID":"P04","Name":"Centrale de Navizence","Type":"水电站","Value":2004,"CRS":"EPSG:4326","Event":"Navizence下段授权续期","Event_Status":"documented","Year_Status":"year","Event_Date":null,"Year_Min":null,"Year_Max":null,"Source_Year":2025,"Record_ID":"R008","Relation_ID":"L_grant","Right_Scope":"Vissoie电站出水口至Rhône回水口，含Fang","Geometry_Status":"已核对官方设施点","Geometry_Scope":"工程设施定位点","Geometry_File":"points_wgs84.geojson","Official_Name":"Navizence","Geo_ID":"503400","Geo_Source":"https://api3.geo.admin.ch/rest/services/ech/MapServer/find?layer=ch.bfe.statistik-wasserkraftanlagen&searchField=name&searchText=Navizence&contains=true&geometryFormat=geojson&returnGeometry=true&sr=4326&lang=fr","Right_Source":"Savoy_Analyse de la gouvernance de la multifonctionnalité.pdf PDF 104","Note":"","Review":"待审理"},"geometry":{"type":"Point","coordinates":[7.54672,46.281587,0]}},{"type":"Feature","id":"P04_E014","properties":{"Row_ID":"P04_E014","Object_ID":"P04","Name":"Centrale de Navizence","Type":"水电站","Value":2009,"CRS":"EPSG:4326","Event":"Navizence下段授权州核准","Event_Status":"documented","Year_Status":"day","Event_Date":"2009-01-28","Year_Min":null,"Year_Max":null,"Source_Year":2025,"Record_ID":"R008","Relation_ID":"","Right_Scope":"Vissoie电站出水口至Rhône回水口，含Fang","Geometry_Status":"已核对官方设施点","Geometry_Scope":"工程设施定位点","Geometry_File":"points_wgs84.geojson","Official_Name":"Navizence","Geo_ID":"503400","Geo_Source":"https://api3.geo.admin.ch/rest/services/ech/MapServer/find?layer=ch.bfe.statistik-wasserkraftanlagen&searchField=name&searchText=Navizence&contains=true&geometryFormat=geojson&returnGeometry=true&sr=4326&lang=fr","Right_Source":"Savoy_Analyse de la gouvernance de la multifonctionnalité.pdf PDF 104","Note":"","Review":"待审理"},"geometry":{"type":"Point","coordinates":[7.54672,46.281587,0]}},{"type":"Feature","id":"P04_E015","properties":{"Row_ID":"P04_E015","Object_ID":"P04","Name":"Centrale de Navizence","Type":"水电站","Value":2084,"CRS":"EPSG:4326","Event":"Navizence下段授权届满","Event_Status":"future","Year_Status":"year","Event_Date":null,"Year_Min":null,"Year_Max":null,"Source_Year":2025,"Record_ID":"R008","Relation_ID":"L2084","Right_Scope":"Vissoie电站出水口至Rhône回水口，含Fang","Geometry_Status":"已核对官方设施点","Geometry_Scope":"工程设施定位点","Geometry_File":"points_wgs84.geojson","Official_Name":"Navizence","Geo_ID":"503400","Geo_Source":"https://api3.geo.admin.ch/rest/services/ech/MapServer/find?layer=ch.bfe.statistik-wasserkraftanlagen&searchField=name&searchText=Navizence&contains=true&geometryFormat=geojson&returnGeometry=true&sr=4326&lang=fr","Right_Source":"Savoy_Analyse de la gouvernance de la multifonctionnalité.pdf PDF 104","Note":"","Review":"待审理"},"geometry":{"type":"Point","coordinates":[7.54672,46.281587,0]}},{"type":"Feature","id":"P05_E034","properties":{"Row_ID":"P05_E034","Object_ID":"P05","Name":"Barrage de Moiry","Type":"坝体","Value":1959,"CRS":"EPSG:4326","Event":"上段特许权期限起点","Event_Status":"documented","Year_Status":"year","Event_Date":null,"Year_Min":null,"Year_Max":null,"Source_Year":2025,"Record_ID":"R014","Relation_ID":"U_grant","Right_Scope":"上段授权组","Geometry_Status":"已核对官方设施点","Geometry_Scope":"工程设施定位点","Geometry_File":"points_wgs84.geojson","Official_Name":"Moiry","Geo_ID":"130676945","Geo_Source":"https://api3.geo.admin.ch/rest/services/ech/MapServer/find?layer=ch.bfe.stauanlagen-bundesaufsicht&searchField=damname&searchText=Moiry&contains=true&geometryFormat=geojson&returnGeometry=true&sr=4326&lang=fr","Right_Source":"Savoy_Analyse de la gouvernance de la multifonctionnalité.pdf PDF 78,94","Note":"采用官方坝体点；不代表整个水库。","Review":"待审理"},"geometry":{"type":"Point","coordinates":[7.570625,46.13691,0]}},{"type":"Feature","id":"P05_E039","properties":{"Row_ID":"P05_E039","Object_ID":"P05","Name":"Barrage de Moiry","Type":"坝体","Value":2021,"CRS":"EPSG:4326","Event":"Moiry加高列入圆桌优先项目","Event_Status":"proposal","Year_Status":"year","Event_Date":null,"Year_Min":null,"Year_Max":null,"Source_Year":2025,"Record_ID":"R016","Relation_ID":"","Right_Scope":"","Geometry_Status":"已核对官方设施点","Geometry_Scope":"工程设施定位点","Geometry_File":"points_wgs84.geojson","Official_Name":"Moiry","Geo_ID":"130676945","Geo_Source":"https://api3.geo.admin.ch/rest/services/ech/MapServer/find?layer=ch.bfe.stauanlagen-bundesaufsicht&searchField=damname&searchText=Moiry&contains=true&geometryFormat=geojson&returnGeometry=true&sr=4326&lang=fr","Right_Source":"Savoy_Analyse de la gouvernance de la multifonctionnalité.pdf PDF 78","Note":"采用官方坝体点；不代表整个水库。；既有坝体定位；加高尚不视为已建。","Review":"待审理"},"geometry":{"type":"Point","coordinates":[7.570625,46.13691,0]}},{"type":"Feature","id":"P05_E026","properties":{"Row_ID":"P05_E026","Object_ID":"P05","Name":"Barrage de Moiry","Type":"坝体","Value":2039,"CRS":"EPSG:4326","Event":"上段涉水资产回归安排","Event_Status":"future","Year_Status":"year","Event_Date":null,"Year_Min":null,"Year_Max":null,"Source_Year":2022,"Record_ID":"R013","Relation_ID":"RETURN39","Right_Scope":"","Geometry_Status":"已核对官方设施点","Geometry_Scope":"工程设施定位点","Geometry_File":"points_wgs84.geojson","Official_Name":"Moiry","Geo_ID":"130676945","Geo_Source":"https://api3.geo.admin.ch/rest/services/ech/MapServer/find?layer=ch.bfe.stauanlagen-bundesaufsicht&searchField=damname&searchText=Moiry&contains=true&geometryFormat=geojson&returnGeometry=true&sr=4326&lang=fr","Right_Source":"Bagnoud_Val d’Anniviers-on prépare déjà l’échéance de la concession des Forces motrices de la Gougra en 2039.pdf PDF 4","Note":"采用官方坝体点；不代表整个水库。；工程关联；最终移交边界以资产清册为准。","Review":"待审理"},"geometry":{"type":"Point","coordinates":[7.570625,46.13691,0]}},{"type":"Feature","id":"P05_E035","properties":{"Row_ID":"P05_E035","Object_ID":"P05","Name":"Barrage de Moiry","Type":"坝体","Value":2039,"CRS":"EPSG:4326","Event":"上段特许权期限届满","Event_Status":"future","Year_Status":"year","Event_Date":null,"Year_Min":null,"Year_Max":null,"Source_Year":2025,"Record_ID":"R014","Relation_ID":"U_grant","Right_Scope":"上段授权组","Geometry_Status":"已核对官方设施点","Geometry_Scope":"工程设施定位点","Geometry_File":"points_wgs84.geojson","Official_Name":"Moiry","Geo_ID":"130676945","Geo_Source":"https://api3.geo.admin.ch/rest/services/ech/MapServer/find?layer=ch.bfe.stauanlagen-bundesaufsicht&searchField=damname&searchText=Moiry&contains=true&geometryFormat=geojson&returnGeometry=true&sr=4326&lang=fr","Right_Source":"Savoy_Analyse de la gouvernance de la multifonctionnalité.pdf PDF 78,94","Note":"采用官方坝体点；不代表整个水库。","Review":"待审理"},"geometry":{"type":"Point","coordinates":[7.570625,46.13691,0]}},{"type":"Feature","id":"P05_E040","properties":{"Row_ID":"P05_E040","Object_ID":"P05","Name":"Barrage de Moiry","Type":"坝体","Value":null,"CRS":"EPSG:4326","Event":"拟议加高投资补偿待谈","Event_Status":"proposal","Year_Status":"unknown","Event_Date":null,"Year_Min":null,"Year_Max":null,"Source_Year":2025,"Record_ID":"R016","Relation_ID":"","Right_Scope":"","Geometry_Status":"已核对官方设施点","Geometry_Scope":"工程设施定位点","Geometry_File":"points_wgs84.geojson","Official_Name":"Moiry","Geo_ID":"130676945","Geo_Source":"https://api3.geo.admin.ch/rest/services/ech/MapServer/find?layer=ch.bfe.stauanlagen-bundesaufsicht&searchField=damname&searchText=Moiry&contains=true&geometryFormat=geojson&returnGeometry=true&sr=4326&lang=fr","Right_Source":"Savoy_Analyse de la gouvernance de la multifonctionnalité.pdf PDF 78","Note":"采用官方坝体点；不代表整个水库。；不把报道日期当成签约年份。","Review":"待审理"},"geometry":{"type":"Point","coordinates":[7.570625,46.13691,0]}},{"type":"Feature","id":"P06_E034","properties":{"Row_ID":"P06_E034","Object_ID":"P06","Name":"Barrage de Tourtemagne / Turtmann","Type":"坝体","Value":1959,"CRS":"EPSG:4326","Event":"上段特许权期限起点","Event_Status":"documented","Year_Status":"year","Event_Date":null,"Year_Min":null,"Year_Max":null,"Source_Year":2025,"Record_ID":"R014","Relation_ID":"U_grant","Right_Scope":"上段授权组","Geometry_Status":"已核对官方设施点","Geometry_Scope":"工程设施定位点","Geometry_File":"points_wgs84.geojson","Official_Name":"Turtmann","Geo_ID":"130677021","Geo_Source":"https://api3.geo.admin.ch/rest/services/ech/MapServer/find?layer=ch.bfe.stauanlagen-bundesaufsicht&searchField=damname&searchText=Turtmann&contains=true&geometryFormat=geojson&returnGeometry=true&sr=4326&lang=fr","Right_Source":"Savoy_Analyse de la gouvernance de la multifonctionnalité.pdf PDF 78,94","Note":"Tourtemagne为文献法文名称；官方设施名Turtmann，与流域和工程一致。","Review":"待审理"},"geometry":{"type":"Point","coordinates":[7.693062,46.169805,0]}},{"type":"Feature","id":"P06_E026","properties":{"Row_ID":"P06_E026","Object_ID":"P06","Name":"Barrage de Tourtemagne / Turtmann","Type":"坝体","Value":2039,"CRS":"EPSG:4326","Event":"上段涉水资产回归安排","Event_Status":"future","Year_Status":"year","Event_Date":null,"Year_Min":null,"Year_Max":null,"Source_Year":2022,"Record_ID":"R013","Relation_ID":"RETURN39","Right_Scope":"","Geometry_Status":"已核对官方设施点","Geometry_Scope":"工程设施定位点","Geometry_File":"points_wgs84.geojson","Official_Name":"Turtmann","Geo_ID":"130677021","Geo_Source":"https://api3.geo.admin.ch/rest/services/ech/MapServer/find?layer=ch.bfe.stauanlagen-bundesaufsicht&searchField=damname&searchText=Turtmann&contains=true&geometryFormat=geojson&returnGeometry=true&sr=4326&lang=fr","Right_Source":"Bagnoud_Val d’Anniviers-on prépare déjà l’échéance de la concession des Forces motrices de la Gougra en 2039.pdf PDF 4","Note":"Tourtemagne为文献法文名称；官方设施名Turtmann，与流域和工程一致。；工程关联；最终移交边界以资产清册为准。","Review":"待审理"},"geometry":{"type":"Point","coordinates":[7.693062,46.169805,0]}},{"type":"Feature","id":"P06_E035","properties":{"Row_ID":"P06_E035","Object_ID":"P06","Name":"Barrage de Tourtemagne / Turtmann","Type":"坝体","Value":2039,"CRS":"EPSG:4326","Event":"上段特许权期限届满","Event_Status":"future","Year_Status":"year","Event_Date":null,"Year_Min":null,"Year_Max":null,"Source_Year":2025,"Record_ID":"R014","Relation_ID":"U_grant","Right_Scope":"上段授权组","Geometry_Status":"已核对官方设施点","Geometry_Scope":"工程设施定位点","Geometry_File":"points_wgs84.geojson","Official_Name":"Turtmann","Geo_ID":"130677021","Geo_Source":"https://api3.geo.admin.ch/rest/services/ech/MapServer/find?layer=ch.bfe.stauanlagen-bundesaufsicht&searchField=damname&searchText=Turtmann&contains=true&geometryFormat=geojson&returnGeometry=true&sr=4326&lang=fr","Right_Source":"Savoy_Analyse de la gouvernance de la multifonctionnalité.pdf PDF 78,94","Note":"Tourtemagne为文献法文名称；官方设施名Turtmann，与流域和工程一致。","Review":"待审理"},"geometry":{"type":"Point","coordinates":[7.693062,46.169805,0]}},{"type":"Feature","id":"P07_E073","properties":{"Row_ID":"P07_E073","Object_ID":"P07","Name":"Barrage de Cleuson","Type":"坝体","Value":null,"CRS":"EPSG:4326","Event":"按需请求增加灌溉下泄","Event_Status":"documented","Year_Status":"unknown","Event_Date":null,"Year_Min":null,"Year_Max":null,"Source_Year":2025,"Record_ID":"R032","Relation_ID":"","Right_Scope":"","Geometry_Status":"已核对官方设施点","Geometry_Scope":"工程设施定位点","Geometry_File":"points_wgs84.geojson","Official_Name":"Cleuson","Geo_ID":"130676867","Geo_Source":"https://api3.geo.admin.ch/rest/services/ech/MapServer/find?layer=ch.bfe.stauanlagen-bundesaufsicht&searchField=damname&searchText=Cleuson&contains=true&geometryFormat=geojson&returnGeometry=true&sr=4326&lang=fr","Right_Source":"Savoy_Analyse de la gouvernance de la multifonctionnalité.pdf PDF 45,46","Note":"访谈年份仅为观测日期；没有固定的逐次权利变更年份。","Review":"待审理"},"geometry":{"type":"Point","coordinates":[7.321586,46.11228,0]}},{"type":"Feature","id":"P08_E078","properties":{"Row_ID":"P08_E078","Object_ID":"P08","Name":"Barrage de l’Hongrin Nord","Type":"坝体","Value":1971,"CRS":"EPSG:4326","Event":"资料记载的运行起算／授权期限起点","Event_Status":"documented","Year_Status":"day","Event_Date":"1971-10-01","Year_Min":null,"Year_Max":null,"Source_Year":2025,"Record_ID":"R034","Relation_ID":"","Right_Scope":"","Geometry_Status":"已核对官方设施点","Geometry_Scope":"工程设施定位点","Geometry_File":"points_wgs84.geojson","Official_Name":"Hongrin Nord","Geo_ID":"130676900","Geo_Source":"https://api3.geo.admin.ch/rest/services/ech/MapServer/find?layer=ch.bfe.stauanlagen-bundesaufsicht&searchField=damname&searchText=Hongrin&contains=true&geometryFormat=geojson&returnGeometry=true&sr=4326&lang=fr","Right_Source":"Savoy_Analyse de la gouvernance de la multifonctionnalité.pdf PDF 57；Savoy PDF58","Note":"仅采用研究对特许期限起算的口径，不替换设备投运统计。","Review":"待审理"},"geometry":{"type":"Point","coordinates":[7.04395,46.42524,0]}},{"type":"Feature","id":"P08_E079","properties":{"Row_ID":"P08_E079","Object_ID":"P08","Name":"Barrage de l’Hongrin Nord","Type":"坝体","Value":2051,"CRS":"EPSG:4326","Event":"资料记载的授权终期","Event_Status":"future","Year_Status":"month","Event_Date":"2051-09","Year_Min":null,"Year_Max":null,"Source_Year":2025,"Record_ID":"R034","Relation_ID":"","Right_Scope":"","Geometry_Status":"已核对官方设施点","Geometry_Scope":"工程设施定位点","Geometry_File":"points_wgs84.geojson","Official_Name":"Hongrin Nord","Geo_ID":"130676900","Geo_Source":"https://api3.geo.admin.ch/rest/services/ech/MapServer/find?layer=ch.bfe.stauanlagen-bundesaufsicht&searchField=damname&searchText=Hongrin&contains=true&geometryFormat=geojson&returnGeometry=true&sr=4326&lang=fr","Right_Source":"Savoy_Analyse de la gouvernance de la multifonctionnalité.pdf PDF 57；Savoy PDF58","Note":"","Review":"待审理"},"geometry":{"type":"Point","coordinates":[7.04395,46.42524,0]}},{"type":"Feature","id":"P09_E078","properties":{"Row_ID":"P09_E078","Object_ID":"P09","Name":"Barrage de l’Hongrin Sud","Type":"坝体","Value":1971,"CRS":"EPSG:4326","Event":"资料记载的运行起算／授权期限起点","Event_Status":"documented","Year_Status":"day","Event_Date":"1971-10-01","Year_Min":null,"Year_Max":null,"Source_Year":2025,"Record_ID":"R034","Relation_ID":"","Right_Scope":"","Geometry_Status":"已核对官方设施点","Geometry_Scope":"工程设施定位点","Geometry_File":"points_wgs84.geojson","Official_Name":"Hongrin Sud","Geo_ID":"130676901","Geo_Source":"https://api3.geo.admin.ch/rest/services/ech/MapServer/find?layer=ch.bfe.stauanlagen-bundesaufsicht&searchField=damname&searchText=Hongrin&contains=true&geometryFormat=geojson&returnGeometry=true&sr=4326&lang=fr","Right_Source":"Savoy_Analyse de la gouvernance de la multifonctionnalité.pdf PDF 57；Savoy PDF58","Note":"仅采用研究对特许期限起算的口径，不替换设备投运统计。","Review":"待审理"},"geometry":{"type":"Point","coordinates":[7.041101,46.423521,0]}},{"type":"Feature","id":"P09_E079","properties":{"Row_ID":"P09_E079","Object_ID":"P09","Name":"Barrage de l’Hongrin Sud","Type":"坝体","Value":2051,"CRS":"EPSG:4326","Event":"资料记载的授权终期","Event_Status":"future","Year_Status":"month","Event_Date":"2051-09","Year_Min":null,"Year_Max":null,"Source_Year":2025,"Record_ID":"R034","Relation_ID":"","Right_Scope":"","Geometry_Status":"已核对官方设施点","Geometry_Scope":"工程设施定位点","Geometry_File":"points_wgs84.geojson","Official_Name":"Hongrin Sud","Geo_ID":"130676901","Geo_Source":"https://api3.geo.admin.ch/rest/services/ech/MapServer/find?layer=ch.bfe.stauanlagen-bundesaufsicht&searchField=damname&searchText=Hongrin&contains=true&geometryFormat=geojson&returnGeometry=true&sr=4326&lang=fr","Right_Source":"Savoy_Analyse de la gouvernance de la multifonctionnalité.pdf PDF 57；Savoy PDF58","Note":"","Review":"待审理"},"geometry":{"type":"Point","coordinates":[7.041101,46.423521,0]}},{"type":"Feature","id":"P10_E058","properties":{"Row_ID":"P10_E058","Object_ID":"P10","Name":"Centrale de Bieudron","Type":"水电站","Value":1987,"CRS":"EPSG:4326","Event":"Cleuson-Dixence项目协议","Event_Status":"documented","Year_Status":"year","Event_Date":null,"Year_Min":null,"Year_Max":null,"Source_Year":2025,"Record_ID":"R027","Relation_ID":"","Right_Scope":"","Geometry_Status":"已核对官方设施点","Geometry_Scope":"工程设施定位点","Geometry_File":"points_wgs84.geojson","Official_Name":"Bieudron","Geo_ID":"504950","Geo_Source":"https://api3.geo.admin.ch/rest/services/ech/MapServer/find?layer=ch.bfe.statistik-wasserkraftanlagen&searchField=name&searchText=Bieudron&contains=true&geometryFormat=geojson&returnGeometry=true&sr=4326&lang=fr","Right_Source":"Savoy_Analyse de la gouvernance de la multifonctionnalité.pdf PDF 24,36","Note":"工程关联位置；早期协议时设施可能尚未建成。","Review":"待审理"},"geometry":{"type":"Point","coordinates":[7.253063,46.182263,0]}},{"type":"Feature","id":"P10_E059","properties":{"Row_ID":"P10_E059","Object_ID":"P10","Name":"Centrale de Bieudron","Type":"水电站","Value":1989,"CRS":"EPSG:4326","Event":"Cleuson-Dixence议定安排","Event_Status":"documented","Year_Status":"year","Event_Date":null,"Year_Min":null,"Year_Max":null,"Source_Year":2025,"Record_ID":"R027","Relation_ID":"","Right_Scope":"","Geometry_Status":"已核对官方设施点","Geometry_Scope":"工程设施定位点","Geometry_File":"points_wgs84.geojson","Official_Name":"Bieudron","Geo_ID":"504950","Geo_Source":"https://api3.geo.admin.ch/rest/services/ech/MapServer/find?layer=ch.bfe.statistik-wasserkraftanlagen&searchField=name&searchText=Bieudron&contains=true&geometryFormat=geojson&returnGeometry=true&sr=4326&lang=fr","Right_Source":"Savoy_Analyse de la gouvernance de la multifonctionnalité.pdf PDF 24,36","Note":"工程关联位置；早期协议时设施可能尚未建成。","Review":"待审理"},"geometry":{"type":"Point","coordinates":[7.253063,46.182263,0]}},{"type":"Feature","id":"P10_E060","properties":{"Row_ID":"P10_E060","Object_ID":"P10","Name":"Centrale de Bieudron","Type":"水电站","Value":2021,"CRS":"EPSG:4326","Event":"追加折旧协议（表格年份口径）","Event_Status":"source_conflict","Year_Status":"year","Event_Date":null,"Year_Min":null,"Year_Max":null,"Source_Year":2025,"Record_ID":"R027","Relation_ID":"","Right_Scope":"","Geometry_Status":"已核对官方设施点","Geometry_Scope":"工程设施定位点","Geometry_File":"points_wgs84.geojson","Official_Name":"Bieudron","Geo_ID":"504950","Geo_Source":"https://api3.geo.admin.ch/rest/services/ech/MapServer/find?layer=ch.bfe.statistik-wasserkraftanlagen&searchField=name&searchText=Bieudron&contains=true&geometryFormat=geojson&returnGeometry=true&sr=4326&lang=fr","Right_Source":"Savoy_Analyse de la gouvernance de la multifonctionnalité.pdf PDF 24,36","Note":"两处追加协议年份互有差异；保留而不视为已证实两份不同追加合同。","Review":"待审理"},"geometry":{"type":"Point","coordinates":[7.253063,46.182263,0]}},{"type":"Feature","id":"P10_E061","properties":{"Row_ID":"P10_E061","Object_ID":"P10","Name":"Centrale de Bieudron","Type":"水电站","Value":2022,"CRS":"EPSG:4326","Event":"追加折旧协议（正文年份口径）","Event_Status":"source_conflict","Year_Status":"year","Event_Date":null,"Year_Min":null,"Year_Max":null,"Source_Year":2025,"Record_ID":"R027","Relation_ID":"","Right_Scope":"","Geometry_Status":"已核对官方设施点","Geometry_Scope":"工程设施定位点","Geometry_File":"points_wgs84.geojson","Official_Name":"Bieudron","Geo_ID":"504950","Geo_Source":"https://api3.geo.admin.ch/rest/services/ech/MapServer/find?layer=ch.bfe.statistik-wasserkraftanlagen&searchField=name&searchText=Bieudron&contains=true&geometryFormat=geojson&returnGeometry=true&sr=4326&lang=fr","Right_Source":"Savoy_Analyse de la gouvernance de la multifonctionnalité.pdf PDF 24,36","Note":"两处追加协议年份互有差异；保留而不视为已证实两份不同追加合同。","Review":"待审理"},"geometry":{"type":"Point","coordinates":[7.253063,46.182263,0]}},{"type":"Feature","id":"P10_E062","properties":{"Row_ID":"P10_E062","Object_ID":"P10","Name":"Centrale de Bieudron","Type":"水电站","Value":2045,"CRS":"EPSG:4326","Event":"表格记载的折旧期末","Event_Status":"future","Year_Status":"year","Event_Date":null,"Year_Min":null,"Year_Max":null,"Source_Year":2025,"Record_ID":"R027","Relation_ID":"","Right_Scope":"","Geometry_Status":"已核对官方设施点","Geometry_Scope":"工程设施定位点","Geometry_File":"points_wgs84.geojson","Official_Name":"Bieudron","Geo_ID":"504950","Geo_Source":"https://api3.geo.admin.ch/rest/services/ech/MapServer/find?layer=ch.bfe.statistik-wasserkraftanlagen&searchField=name&searchText=Bieudron&contains=true&geometryFormat=geojson&returnGeometry=true&sr=4326&lang=fr","Right_Source":"Savoy_Analyse de la gouvernance de la multifonctionnalité.pdf PDF 24,36","Note":"工程关联位置；早期协议时设施可能尚未建成。","Review":"待审理"},"geometry":{"type":"Point","coordinates":[7.253063,46.182263,0]}},{"type":"Feature","id":"P11_E050","properties":{"Row_ID":"P11_E050","Object_ID":"P11","Name":"Restaurant Lac de Moiry","Type":"房屋","Value":null,"CRS":"EPSG:4326","Event":"牧场租赁及右岸餐厅转租链","Event_Status":"documented","Year_Status":"unknown","Event_Date":null,"Year_Min":null,"Year_Max":null,"Source_Year":2025,"Record_ID":"R022","Relation_ID":"","Right_Scope":"","Geometry_Status":"已核对官方建筑点","Geometry_Scope":"工程设施定位点","Geometry_File":"points_wgs84.geojson","Official_Name":"Restaurant Lac de Moiry","Geo_ID":"{3528E978-6F6F-4081-9EB0-614079E88DA1}","Geo_Source":"https://data.geo.admin.ch/ch.swisstopo.swissnames3d/swissnames3d_2026/swissnames3d_2026_2056.gpkg","Right_Source":"Savoy_Analyse de la gouvernance de la multifonctionnalité.pdf PDF 96","Note":"建筑只是转租链关联对象；土地租赁标的另列。；餐厅仅为转租链关联建筑，土地标的另列。","Review":"待审理"},"geometry":{"type":"Point","coordinates":[7.5734296,46.1386718,0]}}]}