{
  "type": "FeatureCollection",
  "name": "points_wgs84_classified",
  "features": [
    {
      "type": "Feature",
      "properties": {
        "Name": "Centrale de Mottec",
        "CRS": "EPSG:4326",
        "Category": "水电工程设施",
        "Transition_Year": 2022
      },
      "geometry": {
        "type": "Point",
        "coordinates": [
          7.619988,
          46.153037,
          0
        ]
      }
    },
    {
      "type": "Feature",
      "properties": {
        "Name": "Centrale de Mottec",
        "CRS": "EPSG:4326",
        "Category": "水电工程设施",
        "Transition_Year": 2022
      },
      "geometry": {
        "type": "Point",
        "coordinates": [
          7.619988,
          46.153037,
          0
        ]
      }
    },
    {
      "type": "Feature",
      "properties": {
        "Name": "Centrale de Mottec",
        "CRS": "EPSG:4326",
        "Category": "水电工程设施",
        "Transition_Year": 2022
      },
      "geometry": {
        "type": "Point",
        "coordinates": [
          7.619988,
          46.153037,
          0
        ]
      }
    },
    {
      "type": "Feature",
      "properties": {
        "Name": "Centrale de Mottec",
        "CRS": "EPSG:4326",
        "Category": "水电工程设施",
        "Transition_Year": 2022
      },
      "geometry": {
        "type": "Point",
        "coordinates": [
          7.619988,
          46.153037,
          0
        ]
      }
    },
    {
      "type": "Feature",
      "properties": {
        "Name": "Centrale de Vissoie",
        "CRS": "EPSG:4326",
        "Category": "水电工程设施",
        "Transition_Year": 2022
      },
      "geometry": {
        "type": "Point",
        "coordinates": [
          7.585969,
          46.209938,
          0
        ]
      }
    },
    {
      "type": "Feature",
      "properties": {
        "Name": "Centrale de Vissoie",
        "CRS": "EPSG:4326",
        "Category": "水电工程设施",
        "Transition_Year": 2022
      },
      "geometry": {
        "type": "Point",
        "coordinates": [
          7.585969,
          46.209938,
          0
        ]
      }
    },
    {
      "type": "Feature",
      "properties": {
        "Name": "Centrale de Vissoie",
        "CRS": "EPSG:4326",
        "Category": "水电工程设施",
        "Transition_Year": 2022
      },
      "geometry": {
        "type": "Point",
        "coordinates": [
          7.585969,
          46.209938,
          0
        ]
      }
    },
    {
      "type": "Feature",
      "properties": {
        "Name": "Centrale de Vissoie",
        "CRS": "EPSG:4326",
        "Category": "水电工程设施",
        "Transition_Year": 2022
      },
      "geometry": {
        "type": "Point",
        "coordinates": [
          7.585969,
          46.209938,
          0
        ]
      }
    },
    {
      "type": "Feature",
      "properties": {
        "Name": "Centrale de Lona",
        "CRS": "EPSG:4326",
        "Category": "水电工程设施",
        "Transition_Year": 1959
      },
      "geometry": {
        "type": "Point",
        "coordinates": [
          7.545824,
          46.1552,
          0
        ]
      }
    },
    {
      "type": "Feature",
      "properties": {
        "Name": "Centrale de Navizence",
        "CRS": "EPSG:4326",
        "Category": "水电工程设施",
        "Transition_Year": 2004
      },
      "geometry": {
        "type": "Point",
        "coordinates": [
          7.54672,
          46.281587,
          0
        ]
      }
    },
    {
      "type": "Feature",
      "properties": {
        "Name": "Centrale de Navizence",
        "CRS": "EPSG:4326",
        "Category": "水电工程设施",
        "Transition_Year": 2004
      },
      "geometry": {
        "type": "Point",
        "coordinates": [
          7.54672,
          46.281587,
          0
        ]
      }
    },
    {
      "type": "Feature",
      "properties": {
        "Name": "Centrale de Navizence",
        "CRS": "EPSG:4326",
        "Category": "水电工程设施",
        "Transition_Year": 2004
      },
      "geometry": {
        "type": "Point",
        "coordinates": [
          7.54672,
          46.281587,
          0
        ]
      }
    },
    {
      "type": "Feature",
      "properties": {
        "Name": "Barrage de Moiry",
        "CRS": "EPSG:4326",
        "Category": "水电工程设施",
        "Transition_Year": 2007
      },
      "geometry": {
        "type": "Point",
        "coordinates": [
          7.570625,
          46.13691,
          0
        ]
      }
    },
    {
      "type": "Feature",
      "properties": {
        "Name": "Barrage de Moiry",
        "CRS": "EPSG:4326",
        "Category": "水电工程设施",
        "Transition_Year": 2007
      },
      "geometry": {
        "type": "Point",
        "coordinates": [
          7.570625,
          46.13691,
          0
        ]
      }
    },
    {
      "type": "Feature",
      "properties": {
        "Name": "Barrage de Moiry",
        "CRS": "EPSG:4326",
        "Category": "水电工程设施",
        "Transition_Year": 2007
      },
      "geometry": {
        "type": "Point",
        "coordinates": [
          7.570625,
          46.13691,
          0
        ]
      }
    },
    {
      "type": "Feature",
      "properties": {
        "Name": "Barrage de Moiry",
        "CRS": "EPSG:4326",
        "Category": "水电工程设施",
        "Transition_Year": 2007
      },
      "geometry": {
        "type": "Point",
        "coordinates": [
          7.570625,
          46.13691,
          0
        ]
      }
    },
    {
      "type": "Feature",
      "properties": {
        "Name": "Barrage de Moiry",
        "CRS": "EPSG:4326",
        "Category": "水电工程设施",
        "Transition_Year": 2007
      },
      "geometry": {
        "type": "Point",
        "coordinates": [
          7.570625,
          46.13691,
          0
        ]
      }
    },
    {
      "type": "Feature",
      "properties": {
        "Name": "Barrage de Tourtemagne / Turtmann",
        "CRS": "EPSG:4326",
        "Category": "水电工程设施",
        "Transition_Year": 1959
      },
      "geometry": {
        "type": "Point",
        "coordinates": [
          7.693062,
          46.169805,
          0
        ]
      }
    },
    {
      "type": "Feature",
      "properties": {
        "Name": "Barrage de Tourtemagne / Turtmann",
        "CRS": "EPSG:4326",
        "Category": "水电工程设施",
        "Transition_Year": 1959
      },
      "geometry": {
        "type": "Point",
        "coordinates": [
          7.693062,
          46.169805,
          0
        ]
      }
    },
    {
      "type": "Feature",
      "properties": {
        "Name": "Barrage de Tourtemagne / Turtmann",
        "CRS": "EPSG:4326",
        "Category": "水电工程设施",
        "Transition_Year": 1959
      },
      "geometry": {
        "type": "Point",
        "coordinates": [
          7.693062,
          46.169805,
          0
        ]
      }
    },
    {
      "type": "Feature",
      "properties": {
        "Name": "Barrage de Cleuson",
        "CRS": "EPSG:4326",
        "Category": "水电工程设施",
        "Transition_Year": 2000
      },
      "geometry": {
        "type": "Point",
        "coordinates": [
          7.321586,
          46.11228,
          0
        ]
      }
    },
    {
      "type": "Feature",
      "properties": {
        "Name": "Barrage de l’Hongrin Nord",
        "CRS": "EPSG:4326",
        "Category": "水电工程设施",
        "Transition_Year": 2011
      },
      "geometry": {
        "type": "Point",
        "coordinates": [
          7.04395,
          46.42524,
          0
        ]
      }
    },
    {
      "type": "Feature",
      "properties": {
        "Name": "Barrage de l’Hongrin Nord",
        "CRS": "EPSG:4326",
        "Category": "水电工程设施",
        "Transition_Year": 2011
      },
      "geometry": {
        "type": "Point",
        "coordinates": [
          7.04395,
          46.42524,
          0
        ]
      }
    },
    {
      "type": "Feature",
      "properties": {
        "Name": "Barrage de l’Hongrin Sud",
        "CRS": "EPSG:4326",
        "Category": "水电工程设施",
        "Transition_Year": 2011
      },
      "geometry": {
        "type": "Point",
        "coordinates": [
          7.041101,
          46.423521,
          0
        ]
      }
    },
    {
      "type": "Feature",
      "properties": {
        "Name": "Barrage de l’Hongrin Sud",
        "CRS": "EPSG:4326",
        "Category": "水电工程设施",
        "Transition_Year": 2011
      },
      "geometry": {
        "type": "Point",
        "coordinates": [
          7.041101,
          46.423521,
          0
        ]
      }
    },
    {
      "type": "Feature",
      "properties": {
        "Name": "Centrale de Bieudron",
        "CRS": "EPSG:4326",
        "Category": "水电工程设施",
        "Transition_Year": 2010
      },
      "geometry": {
        "type": "Point",
        "coordinates": [
          7.253063,
          46.182263,
          0
        ]
      }
    },
    {
      "type": "Feature",
      "properties": {
        "Name": "Centrale de Bieudron",
        "CRS": "EPSG:4326",
        "Category": "水电工程设施",
        "Transition_Year": 2010
      },
      "geometry": {
        "type": "Point",
        "coordinates": [
          7.253063,
          46.182263,
          0
        ]
      }
    },
    {
      "type": "Feature",
      "properties": {
        "Name": "Centrale de Bieudron",
        "CRS": "EPSG:4326",
        "Category": "水电工程设施",
        "Transition_Year": 2010
      },
      "geometry": {
        "type": "Point",
        "coordinates": [
          7.253063,
          46.182263,
          0
        ]
      }
    },
    {
      "type": "Feature",
      "properties": {
        "Name": "Centrale de Bieudron",
        "CRS": "EPSG:4326",
        "Category": "水电工程设施",
        "Transition_Year": 2010
      },
      "geometry": {
        "type": "Point",
        "coordinates": [
          7.253063,
          46.182263,
          0
        ]
      }
    },
    {
      "type": "Feature",
      "properties": {
        "Name": "Centrale de Bieudron",
        "CRS": "EPSG:4326",
        "Category": "水电工程设施",
        "Transition_Year": 2010
      },
      "geometry": {
        "type": "Point",
        "coordinates": [
          7.253063,
          46.182263,
          0
        ]
      }
    },
    {
      "type": "Feature",
      "properties": {
        "Name": "Restaurant Lac de Moiry",
        "CRS": "EPSG:4326",
        "Category": "土地与建筑",
        "Transition_Year": null
      },
      "geometry": {
        "type": "Point",
        "coordinates": [
          7.5734296,
          46.1386718,
          0
        ]
      }
    }
  ]
}
