{"type": "FeatureCollection", "name": "objects_points_wgs84", "crs": {"type": "name", "properties": {"name": "urn:ogc:def:crs:OGC:1.3:CRS84"}}, "features": [{"type": "Feature", "properties": {"Object_ID": "P01", "Name": "Centrale de Mottec", "Feature_Type": "水电站", "Category": "水电工程设施", "Built_Year": 1958, "Built_Year_Note": "1958年12月两组机组投运；2018–2025年改造（69→87 MW）", "Built_Year_Basis": "联网+文献", "Built_Year_Source": "Alpiq新闻稿（Mottec, first commissioned 1958）；Mottier 1959 p3；Savoy 2025 p79", "Transition_Year": 2022, "Concession_1": 1959, "Concession_1_Event": "上段特许权期限起点（documented；R014）", "Concession_2": 2022, "Concession_2_Event": "现代化增值／残值补偿纳入约定（documented；R012）", "Concession_3": 2039, "Concession_3_Event": "现代化补偿约定结算时点（future_obligation；R012）", "Concession_4": 2039, "Concession_4_Event": "上段特许权期限届满（future；R014）", "Concession_5": null, "Concession_5_Event": null, "Concession_6": null, "Concession_6_Event": null, "Concession_7": null, "Concession_7_Event": null, "Concession_8": null, "Concession_8_Event": null, "Geometry_Status": "已核对官方设施点", "CRS": "EPSG:4326"}, "geometry": {"type": "Point", "coordinates": [7.619988, 46.153037, 0]}}, {"type": "Feature", "properties": {"Object_ID": "P02", "Name": "Centrale de Vissoie", "Feature_Type": "水电站", "Category": "水电工程设施", "Built_Year": 1958, "Built_Year_Note": "1958年5–6月三组机组相继投运；2025年前后改造", "Built_Year_Basis": "联网+文献", "Built_Year_Source": "Alpiq新闻（Vissoie commissioned 1958）；Mottier 1959 p3", "Transition_Year": 2022, "Concession_1": 1959, "Concession_1_Event": "上段特许权期限起点（documented；R014）", "Concession_2": 2022, "Concession_2_Event": "现代化增值／残值补偿纳入约定（documented；R012）", "Concession_3": 2039, "Concession_3_Event": "现代化补偿约定结算时点（future_obligation；R012）", "Concession_4": 2039, "Concession_4_Event": "上段特许权期限届满（future；R014）", "Concession_5": null, "Concession_5_Event": null, "Concession_6": null, "Concession_6_Event": null, "Concession_7": null, "Concession_7_Event": null, "Concession_8": null, "Concession_8_Event": null, "Geometry_Status": "已核对官方设施点", "CRS": "EPSG:4326"}, "geometry": {"type": "Point", "coordinates": [7.585969, 46.209938, 0]}}, {"type": "Feature", "properties": {"Object_ID": "P03", "Name": "Centrale de Lona", "Feature_Type": "水电站（小型自动电站）", "Category": "水电工程设施", "Built_Year": 1961, "Built_Year_Note": "Lona引水1958年才决定，工程1961年完工；1000 kW自动电站", "Built_Year_Basis": "文献", "Built_Year_Source": "Robert 1962 p2；Hoeffleur 1962 p10", "Transition_Year": 1959, "Concession_1": 2039, "Concession_1_Event": "上段特许权期限届满（future；R014）", "Concession_2": null, "Concession_2_Event": null, "Concession_3": null, "Concession_3_Event": null, "Concession_4": null, "Concession_4_Event": null, "Concession_5": null, "Concession_5_Event": null, "Concession_6": null, "Concession_6_Event": null, "Concession_7": null, "Concession_7_Event": null, "Concession_8": null, "Concession_8_Event": null, "Geometry_Status": "已核对官方设施点", "CRS": "EPSG:4326"}, "geometry": {"type": "Point", "coordinates": [7.545824, 46.1552, 0]}}, {"type": "Feature", "properties": {"Object_ID": "P04", "Name": "Centrale de Navizence", "Feature_Type": "水电站", "Category": "水电工程设施", "Built_Year": 1908, "Built_Year_Note": "AIAG（后Alusuisse）Chippis厂1905年购得Navizence水权，1908年投产；1954/55年为Gougra改造", "Built_Year_Basis": "联网+文献", "Built_Year_Source": "HLS《Alusuisse》；Robert 1962 p3", "Transition_Year": 2004, "Concession_1": 2004, "Concession_1_Event": "Navizence下段授权续期（documented；R008）", "Concession_2": 2009, "Concession_2_Event": "Navizence下段授权州核准（documented；R008）", "Concession_3": 2084, "Concession_3_Event": "Navizence下段授权届满（future；R008）", "Concession_4": null, "Concession_4_Event": null, "Concession_5": null, "Concession_5_Event": null, "Concession_6": null, "Concession_6_Event": null, "Concession_7": null, "Concession_7_Event": null, "Concession_8": null, "Concession_8_Event": null, "Geometry_Status": "已核对官方设施点", "CRS": "EPSG:4326"}, "geometry": {"type": "Point", "coordinates": [7.54672, 46.281587, 0]}}, {"type": "Feature", "properties": {"Object_ID": "P05", "Name": "Barrage de Moiry", "Feature_Type": "坝体（拱坝）", "Category": "水电工程设施", "Built_Year": 1958, "Built_Year_Note": "1954–1958年建设；1960年首次蓄满", "Built_Year_Basis": "联网+文献", "Built_Year_Source": "swissdams.ch；Savoy 2025 p78；Stucky 1962 p6", "Transition_Year": 2007, "Concession_1": 1959, "Concession_1_Event": "上段特许权期限起点（documented；R014）", "Concession_2": 2021, "Concession_2_Event": "Moiry加高列入圆桌优先项目（proposal；R016）", "Concession_3": 2039, "Concession_3_Event": "上段涉水资产回归安排（future；R013）", "Concession_4": 2039, "Concession_4_Event": "上段特许权期限届满（future；R014）", "Concession_5": null, "Concession_5_Event": "年份不详 拟议加高投资补偿待谈（proposal；R016）", "Concession_6": null, "Concession_6_Event": null, "Concession_7": null, "Concession_7_Event": null, "Concession_8": null, "Concession_8_Event": null, "Geometry_Status": "已核对官方设施点", "CRS": "EPSG:4326"}, "geometry": {"type": "Point", "coordinates": [7.570625, 46.13691, 0]}}, {"type": "Feature", "properties": {"Object_ID": "P06", "Name": "Barrage de Tourtemagne / Turtmann", "Feature_Type": "坝体（拱坝）", "Category": "水电工程设施", "Built_Year": 1958, "Built_Year_Note": "1957–1958年建设", "Built_Year_Basis": "联网+文献", "Built_Year_Source": "swissdams.ch（Tourtemagne）；HLS；Savoy 2025 p78", "Transition_Year": 1959, "Concession_1": 1959, "Concession_1_Event": "上段特许权期限起点（documented；R014）", "Concession_2": 2039, "Concession_2_Event": "上段涉水资产回归安排（future；R013）", "Concession_3": 2039, "Concession_3_Event": "上段特许权期限届满（future；R014）", "Concession_4": null, "Concession_4_Event": null, "Concession_5": null, "Concession_5_Event": null, "Concession_6": null, "Concession_6_Event": null, "Concession_7": null, "Concession_7_Event": null, "Concession_8": null, "Concession_8_Event": null, "Geometry_Status": "已核对官方设施点", "CRS": "EPSG:4326"}, "geometry": {"type": "Point", "coordinates": [7.693062, 46.169805, 0]}}, {"type": "Feature", "properties": {"Object_ID": "P07", "Name": "Barrage de Cleuson", "Feature_Type": "坝体（空腹重力坝）", "Category": "水电工程设施", "Built_Year": 1950, "Built_Year_Note": "1947年开工，1950年完工（swissdams）；Savoy记1948/49起分期投用、1952年最终完工", "Built_Year_Basis": "联网+文献", "Built_Year_Source": "swissdams.ch（Cleuson）；Savoy 2025 p24–25", "Transition_Year": 2000, "Concession_1": null, "Concession_1_Event": "年份不详 按需请求增加灌溉下泄（documented；R032）", "Concession_2": null, "Concession_2_Event": null, "Concession_3": null, "Concession_3_Event": null, "Concession_4": null, "Concession_4_Event": null, "Concession_5": null, "Concession_5_Event": null, "Concession_6": null, "Concession_6_Event": null, "Concession_7": null, "Concession_7_Event": null, "Concession_8": null, "Concession_8_Event": null, "Geometry_Status": "已核对官方设施点", "CRS": "EPSG:4326"}, "geometry": {"type": "Point", "coordinates": [7.321586, 46.11228, 0]}}, {"type": "Feature", "properties": {"Object_ID": "P08", "Name": "Barrage de l’Hongrin Nord", "Feature_Type": "坝体（拱坝）", "Category": "水电工程设施", "Built_Year": 1969, "Built_Year_Note": "坝体1969年建成；Veytaux电站1971年投运（1966–1971年施工）", "Built_Year_Basis": "联网", "Built_Year_Source": "Lausanne SiL（Barrage de l'Hongrin）；alpesvaudoises.ch", "Transition_Year": 2011, "Concession_1": 1971, "Concession_1_Event": "资料记载的运行起算／授权期限起点（documented；R034）", "Concession_2": 2051, "Concession_2_Event": "资料记载的授权终期（future；R034）", "Concession_3": null, "Concession_3_Event": null, "Concession_4": null, "Concession_4_Event": null, "Concession_5": null, "Concession_5_Event": null, "Concession_6": null, "Concession_6_Event": null, "Concession_7": null, "Concession_7_Event": null, "Concession_8": null, "Concession_8_Event": null, "Geometry_Status": "已核对官方设施点", "CRS": "EPSG:4326"}, "geometry": {"type": "Point", "coordinates": [7.04395, 46.42524, 0]}}, {"type": "Feature", "properties": {"Object_ID": "P09", "Name": "Barrage de l’Hongrin Sud", "Feature_Type": "坝体（拱坝）", "Category": "水电工程设施", "Built_Year": 1969, "Built_Year_Note": "同Hongrin北坝：1969年建成，1971年投运", "Built_Year_Basis": "联网", "Built_Year_Source": "Lausanne SiL（Barrage de l'Hongrin）；alpesvaudoises.ch", "Transition_Year": 2011, "Concession_1": 1971, "Concession_1_Event": "资料记载的运行起算／授权期限起点（documented；R034）", "Concession_2": 2051, "Concession_2_Event": "资料记载的授权终期（future；R034）", "Concession_3": null, "Concession_3_Event": null, "Concession_4": null, "Concession_4_Event": null, "Concession_5": null, "Concession_5_Event": null, "Concession_6": null, "Concession_6_Event": null, "Concession_7": null, "Concession_7_Event": null, "Concession_8": null, "Concession_8_Event": null, "Geometry_Status": "已核对官方设施点", "CRS": "EPSG:4326"}, "geometry": {"type": "Point", "coordinates": [7.041101, 46.423521, 0]}}, {"type": "Feature", "properties": {"Object_ID": "P10", "Name": "Centrale de Bieudron", "Feature_Type": "水电站", "Category": "水电工程设施", "Built_Year": 1998, "Built_Year_Note": "1993–1998年建设，1998年投运（1999年落成）；2000年压力井破裂停运，约2010年恢复", "Built_Year_Basis": "联网+文献", "Built_Year_Source": "nendaz.ch（Bieudron）；Savoy 2025 p24", "Transition_Year": 2010, "Concession_1": 1987, "Concession_1_Event": "Cleuson-Dixence项目协议（documented；R027）", "Concession_2": 1989, "Concession_2_Event": "Cleuson-Dixence议定安排（documented；R027）", "Concession_3": 2021, "Concession_3_Event": "追加折旧协议（表格年份口径）（source_conflict；R027）", "Concession_4": 2022, "Concession_4_Event": "追加折旧协议（正文年份口径）（source_conflict；R027）", "Concession_5": 2045, "Concession_5_Event": "表格记载的折旧期末（future；R027）", "Concession_6": null, "Concession_6_Event": null, "Concession_7": null, "Concession_7_Event": null, "Concession_8": null, "Concession_8_Event": null, "Geometry_Status": "已核对官方设施点", "CRS": "EPSG:4326"}, "geometry": {"type": "Point", "coordinates": [7.253063, 46.182263, 0]}}, {"type": "Feature", "properties": {"Object_ID": "P11", "Name": "Restaurant Lac de Moiry", "Feature_Type": "餐厅建筑", "Category": "土地与建筑", "Built_Year": 1958, "Built_Year_Note": "估计值：由Moiry坝施工期（1954–1958）木板房改作餐厅，改用年份不详；1989年雪崩损毁后以砖石重建", "Built_Year_Basis": "推测", "Built_Year_Source": "Savoy 2025 p86（访谈11）", "Transition_Year": null, "Concession_1": null, "Concession_1_Event": "年份不详 牧场租赁及右岸餐厅转租链（documented；R022）", "Concession_2": null, "Concession_2_Event": null, "Concession_3": null, "Concession_3_Event": null, "Concession_4": null, "Concession_4_Event": null, "Concession_5": null, "Concession_5_Event": null, "Concession_6": null, "Concession_6_Event": null, "Concession_7": null, "Concession_7_Event": null, "Concession_8": null, "Concession_8_Event": null, "Geometry_Status": "已核对官方建筑点", "CRS": "EPSG:4326"}, "geometry": {"type": "Point", "coordinates": [7.5734296, 46.1386718, 0]}}]}